{
    "type": "FeatureCollection",
    "features": [
        {
            "type": "Feature",
            "properties": {},
            "geometry": {
                "type": "Polygon",
                "coordinates": [
                    [
                        [
                            5.644398,
                            6.45416
                        ],
                        [
                            5.688858,
                            6.435549
                        ],
                        [
                            5.691261,
                            6.434013
                        ],
                        [
                            5.69418,
                            6.431451
                        ],
                        [
                            5.713234,
                            6.410449
                        ],
                        [
                            5.733318,
                            6.388592
                        ],
                        [
                            5.72834,
                            6.387739
                        ],
                        [
                            5.725594,
                            6.387397
                        ],
                        [
                            5.720959,
                            6.386031
                        ],
                        [
                            5.701218,
                            6.378347
                        ],
                        [
                            5.685596,
                            6.368957
                        ],
                        [
                            5.67976,
                            6.371177
                        ],
                        [
                            5.67049,
                            6.377495
                        ],
                        [
                            5.650406,
                            6.376983
                        ],
                        [
                            5.644226,
                            6.369811
                        ],
                        [
                            5.644398,
                            6.3874
                        ],
                        [
                            5.642166,
                            6.395084
                        ],
                        [
                            5.639763,
                            6.41011
                        ],
                        [
                            5.641136,
                            6.414038
                        ],
                        [
                            5.644226,
                            6.416428
                        ],
                        [
                            5.644913,
                            6.418648
                        ],
                        [
                            5.643539,
                            6.424283
                        ],
                        [
                            5.638733,
                            6.431454
                        ],
                        [
                            5.638819,
                            6.438979
                        ],
                        [
                            5.640621,
                            6.445803
                        ],
                        [
                            5.643196,
                            6.45126
                        ],
                        [
                            5.644398,
                            6.45416
                        ]
                    ]
                ]
            }
        }
    ]
}